[{"OBJECT_NAME":"ONEWEB-0532","OBJECT_ID":"2023-004A","EPOCH":"2026-03-09T20:39:25.580736","MEAN_MOTION":13.17648914,"ECCENTRICITY":0.0001921,"INCLINATION":87.9162,"RA_OF_ASC_NODE":25.5867,"ARG_OF_PERICENTER":68.5799,"MEAN_ANOMALY":291.5537,"EPHEMERIS_TYPE":0,"CLASSIFICATION_TYPE":"U","NORAD_CAT_ID":55140,"ELEMENT_SET_NO":999,"REV_AT_EPOCH":15450,"BSTAR":-0.00011889847,"MEAN_MOTION_DOT":-3.3e-7,"MEAN_MOTION_DDOT":0},{"OBJECT_NAME":"FENGYUN 1C DEB","OBJECT_ID":"1999-025CGT","EPOCH":"2026-03-05T04:25:54.279264","MEAN_MOTION":14.0465685,"ECCENTRICITY":0.0439164,"INCLINATION":98.3742,"RA_OF_ASC_NODE":47.1093,"ARG_OF_PERICENTER":284.9374,"MEAN_ANOMALY":70.3578,"EPHEMERIS_TYPE":0,"CLASSIFICATION_TYPE":"U","NORAD_CAT_ID":31805,"ELEMENT_SET_NO":999,"REV_AT_EPOCH":63520,"BSTAR":0.0023074638,"MEAN_MOTION_DOT":8.792e-5,"MEAN_MOTION_DDOT":0}]
